STARLINK-35865          
1 67826U 26033F   26069.57442845  .00564953  00000+0  24765-2 0  9992
2 67826  42.9983 266.0494 0002991 224.3939 135.6693 15.82341893  4764
STARLINK-36289          
1 67827U 26033G   26069.57367875  .00817265  00000+0  34672-2 0  9997
2 67827  42.9974 266.0430 0003836 252.6928 107.3524 15.82404719  4762
STARLINK-36670          
1 67828U 26033H   26069.57293243  .00423125  00000+0  18964-2 0  9999
2 67828  42.9980 266.0373 0002024 271.2146  88.8493 15.82229040  4763
STARLINK-36144          
1 67829U 26033J   26069.57218014  .00800181  00000+0  34023-2 0  9998
2 67829  42.9977 266.0309 0003353 263.3811  96.6679 15.82399453  4765
STARLINK-36611          
1 67830U 26033K   26069.57143354  .00822350  00000+0  34893-2 0  9991
2 67830  42.9978 266.0248 0003761 250.8710 109.1755 15.82388494  4760
STARLINK-36661          
1 67831U 26033L   26069.00249023  .00297350  00000+0  13608-2 0  9997
2 67831  42.9981 269.5016 0002601 265.6555  94.4019 15.82108507  4673
STARLINK-36662          
1 67832U 26033M   26069.57033561  .00880190  00000+0  33084-2 0  9998
2 67832  42.9964 265.1061 0003901 257.3460 102.6976 15.84815028  4774
STARLINK-36659          
1 67833U 26033N   26069.56993381  .00807646  00000+0  34331-2 0  9994
2 67833  42.9975 266.0122 0004103 248.7864 111.2570 15.82387104  4764
STARLINK-36655          
1 67834U 26033P   26069.56918654  .00617728  00000+0  26951-2 0  9994
2 67834  42.9979 266.0061 0002278 262.1726  97.8887 15.82308291  4769
STARLINK-36657          
1 67835U 26033Q   26069.56843689  .00586523  00000+0  25696-2 0  9993
2 67835  42.9980 266.0004 0002318 269.9878  90.0728 15.82298786  4763
STARLINK-36650          
1 67836U 26033R   26069.69422177 -.00005627  00000+0 -26106-4 0  9995
2 67836  42.9978 265.2221 0004290 280.1461  79.8927 15.80418741  4788
STARLINK-36649          
1 67837U 26033S   26069.56693844  .00807012  00000+0  34300-2 0  9992
2 67837  42.9976 265.9873 0002652 258.1962 101.8613 15.82389294  4766
